#aV2023  4 17  0  0  0.00000000     288 DD+AD WGS84 FIT  NGA
## 2258  86400.00000000   300.00000000 60051 0.0000000000000
+   32     1  2  3  4  5  6  7  8  9 10 11 12 13 14 15 16 17
+         18 19 20 21 22 23 24 25 26 27 28 29 30 31 32  0  0
+          0  0  0  0  0  0  0  0  0  0  0  0  0  0  0  0  0
+          0  0  0  0  0  0  0  0  0  0  0  0  0  0  0  0  0
+          0  0  0  0  0  0  0  0  0  0  0  0  0  0  0  0  0
++         2  2  2  2  2  2  2  2  2  2  2  2  2  2  2  2  2
++         2  2  2  2  2  2  2  2  2  2  2  2  2  2  2  0  0
++         0  0  0  0  0  0  0  0  0  0  0  0  0  0  0  0  0
++         0  0  0  0  0  0  0  0  0  0  0  0  0  0  0  0  0
++         0  0  0  0  0  0  0  0  0  0  0  0  0  0  0  0  0
%c cc cc ccc ccc cccc cccc cccc cccc ccccc ccccc ccccc ccccc
%c cc cc ccc ccc cccc cccc cccc cccc ccccc ccccc ccccc ccccc
%f  0.0000000  0.000000000  0.00000000000  0.000000000000000
%f  0.0000000  0.000000000  0.00000000000  0.000000000000000
%i    0    0    0    0      0      0      0      0         0
%i    0    0    0    0      0      0      0      0         0
/*      NGA, ST. LOUIS,MO.                                  
/*   EPHEMERIS COMPUTED FROM 2 DAYS OF DATA                 
/*   EPOCHA v8 SMOOTHER                                     
/*   G2139 IERS2010 SATIGS SATAPC                           
*  2023  4 17 10 25  0.00000000
P  1 -18772.848403 -14091.687710 -13096.188271    192.568256                    
V  1  15652.818078   3088.206175 -26084.985375     -0.032509                    
P  2  25954.906159   5276.669601   1130.526897   -605.184436                    
V  2  -1239.547765   2547.978685  31982.941098      0.036945                    
P  3 -12795.713452 -21066.420316   9926.482440   -327.080857                    
V  3  -1518.945495 -12787.431596 -28612.272180      0.091218                    
P  4 -11148.839473 -10342.750499  21790.288010     18.960485                    
V  4  19985.364047 -19080.737657   1059.312189      0.092710                    
P  5   4444.513344  25519.920385   5401.664873   -123.732190                    
V  5  -4800.279821  -5893.623987  30935.194787     -0.014544                    
P  6 -18771.121470   6944.607318  17573.606222    587.083742                    
V  6 -21059.207333  -6752.226869 -19800.501547      0.011385                    
P  7 -25915.161111  -6943.203314    266.102512    199.407436                    
V  7    490.120347  -2677.054990  31214.859041     -0.085838                    
P  8   -498.954889 -18745.712377 -18721.011029   -118.161355                    
V  8  17411.819192 -16273.649709  16276.421445     -0.017907                    
P  9 -18576.791664    247.013235  18926.241024   -178.211103                    
V  9  15498.568838 -18620.701209  15354.210390      0.079783                    
P 10  13007.210945  -7635.537712 -21653.764231    -33.192097                    
V 10   8017.182619  26734.514703  -4871.963526     -0.016013                    
P 11  -4527.959419  14423.060763  21847.447633   -165.416774                    
V 11 -26436.715212  -8283.614212    -44.546188     -0.127353                    
P 12  10154.841483  23280.198008   7640.055445   -364.982773                    
V 12   -418.445015  10347.931688 -29787.307048     -0.046542                    
P 13  -8387.165116  19902.376549 -15498.163104    507.013147                    
V 13 -16528.256877  10380.258310  22725.519227      0.055816                    
P 14 -14827.551130   4435.765343 -21573.724226     27.786241                    
V 14  -6678.876788 -26635.805795  -1026.718786      0.116839                    
P 15   3560.775214  18732.303208 -18841.472770     31.402834                    
V 15 -15263.250373  17548.110126  15192.479870      0.034175                    
P 16    774.379874 -25065.032618   7706.955854   -508.194920                    
V 16   4765.123431   9611.498991  30058.195282      0.027921                    
P 17 -21968.103534  12324.891808  -8158.274688    710.970600                    
V 17   6618.870024  -8950.095311 -29684.298817      0.018005                    
P 18  25968.315134   4327.495380  -4082.839768   -227.929836                    
V 18   4369.297162   3533.130788  31390.745808     -0.165443                    
P 19 -20334.565048  16833.224356    122.906497    304.812956                    
V 19  -2026.092246  -1783.875541 -32229.643929      0.050950                    
P 20  -1074.001732  22312.131275  14555.090637    438.561130                    
V 20  -9841.730473 -15677.203036  23165.537800     -0.021438                    
P 21 -12252.390472 -14851.066562 -18090.660555    154.190711                    
V 21  23691.392885   2765.870419 -16941.207382     -0.002910                    
P 22  17903.333566 -19163.581324   4033.746901    465.669234                    
V 22   5321.878129   -862.830506 -31349.598411      0.068089                    
P 23  16215.565984   5601.079664 -20311.005677     17.450526                    
V 23   6809.287135  24822.834478  12133.479255      0.026328                    
P 24  15674.894933  14735.028559 -16192.623546   -155.044016                    
V 24 -19896.588767  -1230.730008 -20420.376572     -0.145367                    
P 25  15732.466642  14564.833174  15534.808447    436.245469                    
V 25   3697.290422  19973.760014 -21761.438393      0.028674                    
P 26   7837.294796 -17677.077912  17945.178190    241.680622                    
V 26   9775.916375  21191.202714  16836.033311     -0.002558                    
P 27  10018.555002 -21630.602266 -11505.318259     57.021679                    
V 27  11788.630199  -8579.807220  27382.461454     -0.084205                    
P 28  20116.121155  -6902.461166  15880.773517     66.302853                    
V 28  19327.036106   6220.974058 -21747.084201      0.061056                    
P 29  16023.557986   4519.922292  20660.942652   -595.862708                    
V 29 -19282.478563  17885.275563  10932.696005     -0.015404                    
P 30 -24102.309965   2057.804952 -11157.417634   -521.944673                    
V 30 -13050.063462  -6495.599964  26471.330833      0.018766                    
P 31  13662.461221 -10843.977757  19985.197787   -214.158072                    
V 31  24424.235027   7876.417732 -11882.845345     -0.008497                    
P 32  20716.632332 -15121.160952  -6311.485825   -453.744073                    
V 32  -3635.305830   8011.871671 -30470.719891     -0.099526                    
EOF
